[{"OBJECT_NAME":"CUBESX-HSE 3 (RS42S)","OBJECT_ID":"2023-091N","EPOCH":"2026-03-09T22:57:25.321248","MEAN_MOTION":15.286147,"ECCENTRICITY":0.00127191,"INCLINATION":97.5203,"RA_OF_ASC_NODE":133.4295,"ARG_OF_PERICENTER":86.5376,"MEAN_ANOMALY":273.7318,"EPHEMERIS_TYPE":0,"CLASSIFICATION_TYPE":"U","NORAD_CAT_ID":57178,"ELEMENT_SET_NO":999,"REV_AT_EPOCH":14925,"BSTAR":0.00059055694,"MEAN_MOTION_DOT":0.00016417,"MEAN_MOTION_DDOT":0},{"OBJECT_NAME":"STARLINK-31721","OBJECT_ID":"2024-074C","EPOCH":"2026-03-09T03:25:01.802208","MEAN_MOTION":15.27570564,"ECCENTRICITY":9.752e-5,"INCLINATION":43.0039,"RA_OF_ASC_NODE":346.3569,"ARG_OF_PERICENTER":263.6661,"MEAN_ANOMALY":96.4079,"EPHEMERIS_TYPE":0,"CLASSIFICATION_TYPE":"U","NORAD_CAT_ID":59536,"ELEMENT_SET_NO":999,"REV_AT_EPOCH":10593,"BSTAR":-3.877514e-6,"MEAN_MOTION_DOT":-3.69e-6,"MEAN_MOTION_DDOT":0}]
